#dP2020  1 18  0  0  0.00000000      96 __u+U ITR00 FIT  IAC
## 2088 518400.00000000   900.00000000 58866 0.0000000000000
+  115   C01C02C03C04C05C06C07C08C09C10C11C12C13C14C16C19C20
+        C21C22C23C24C25C26C27C28C29C30C32C33C34C35C36C37E01
+        E02E03E04E05E07E08E09E11E12E13E14E15E18E19E21E24E25
+        E26E27E30E31E33E36G01G02G03G04G05G06G07G08G09G10G11
+        G12G13G14G15G16G17G18G19G20G21G22G23G24G25G26G27G28
+        G29G30G31G32J01J02J03J07R01R02R03R04R05R07R08R09R11
+        R12R13R14R15R16R17R18R19R20R21R22R23R26  0  0  0  0
++        13 13 13 13 12  8  8  8  8  8  7  8  8  7  8  8  8
++         8  8  8  8  8  8  8  8  8  8  8  8  8  8  8  8  4
++         4  4  4  4  4  4  4  4  4  4  4  4  4  4  4  4  4
++         4  4  4  4  4  4  3  3  3  4  3  3  3  3  3  3  3
++         3  3  3  3  3  3  4  3  3  3  3  3  3  4  3  3  6
++         3  3  3  3  8  8  8  0  6  5  5  5  5  5  6  5  5
++         5  6  6  5  6  5  5  6  6  5  5  5  8  0  0  0  0
%c M  cc GPS ccc cccc cccc cccc cccc ccccc ccccc ccccc ccccc
%c cc cc ccc ccc cccc cccc cccc cccc ccccc ccccc ccccc ccccc
%f  0.0000000  0.000000000  0.00000000000  0.000000000000000
%f  0.0000000  0.000000000  0.00000000000  0.000000000000000
%i    0    0    0    0      0      0      0      0         0
%i    0    0    0    0      0      0      0      0         0
/* INFORMATION & ANALYSIS CENTER (IAC)            RAPID DATA
/* S/V CLOCKS ARE ALIGNED TO GNSS TIME                      
/* G:C1WC2W R:C1PC2P E:C1XC5X C:C2IC6I J:C1CC2S             
/* PCV:IGS14_2086 OL/AL:FES2004  NONE     YN ORB:CoN CLK:CoN
*  2020 01 18  7 45  0.00000000
PC01 -32308.914793  27104.020371    -27.740242     94.976964
PC02   4380.914474  41900.720322   -949.907249    603.430768
PC03 -14666.223253  39511.096565   -870.448630    261.867508
PC04 -39641.266945  14431.097349   -213.371682   -429.124881
PC05  21893.563468  36001.211469   -930.092221   -200.748069
PC06 -21535.378839  34900.351779   9202.067052    259.331379
PC07  -7578.973549  33123.153640  25431.114324     84.430303
PC08 -15539.325820  18353.489545 -34591.273327    -87.297285
PC09 -11567.115923  34432.750130  21326.188262    269.551887
PC10   3745.844084  39236.615343  15689.859381   -571.689740
PC11  24536.466151  -5365.396672 -12038.766601   -127.969044
PC12  12950.033169   9644.633446 -22713.972172    310.174615
PC13   -842.451975  23114.890754 -35140.316550    212.690872
PC14  16027.932157    831.151020  22854.690768   -817.460168
PC16 -20362.158035  35322.526870  10404.748406   -839.920747
PC19 -14600.467074  10111.254560 -21507.786477    301.101445
PC20 -14948.642825 -10815.073103 -20916.828085   -574.660925
PC21   6361.878322  26023.576625   7856.402925      9.559685
PC22  -5816.288102  25564.905882  -9595.221627   -697.312805
PC23   5575.998346 -15290.413199 -22667.800093   -874.038080
PC24  24932.633847  12373.485596  -1758.743643   -902.949098
PC25  21434.191359  -2910.523551 -17623.290033   -485.336773
PC26  14609.018604  18990.819739  14271.648001    538.218603
PC27  -3832.778911 -15906.787396  22598.847849    262.616904
PC28  15011.210651 -19486.135113  13180.984931    253.571413
PC29 -24581.437499  12617.469000   3903.744675    175.330054
PC30 -20351.172618  -2508.563830  18923.636918    257.969722
PC32  -6539.291937 -25969.834593  -7828.749712   -857.402090
PC33  14614.334656 -10074.978260  21530.893153   -797.428623
PC34  20630.315983   2250.519721 -18666.558923   -399.754695
PC35 -14426.520779  19986.236443 -13045.702321   -779.264654
PC36 -21631.562330   2241.066197  17510.054231   -844.990349
PC37 -13679.913861 -19377.873275 -14700.442465   -913.054505
PE01  17145.286107  -3611.108033 -23854.433510   -776.007861
PE02 -17120.025066   3661.988142  23870.657814    106.549932
PE03 -19229.204983  14828.472019 -16942.284198   -256.337220
PE04  11403.559048 -27315.742009     -3.099456   -447.774034
PE05 -15860.440924  -6500.877007 -24136.418599   -413.088781
PE07   3241.752200  23892.748012  17175.743710   -328.439390
PE08 -11100.739619  27446.547273    176.278561   6233.150870
PE09  -3380.496320 -23770.463377 -17304.355417   6185.115256
PE11  -9625.106656 -14607.885717  23879.109149    847.511902
PE12  13315.135209 -15944.377112  21104.412924   5995.791571
PE13   9435.862587  14552.416288 -23973.091266    397.502756
PE14  -8098.381042 -12727.332580  17787.714651   -872.140291
PE15 -13013.911353  15965.720065 -21242.031027    880.437871
PE18  13029.296063  16256.004609 -25131.481496   -968.857954
PE19  19311.493443 -12822.331222  18406.731548     -1.914032
PE21  22099.223972  15196.954987 -12517.190974   -577.651962
PE24 -13929.793844 -25368.969391  -6289.855083   5657.126802
PE25 -22097.184004 -15288.218084  12431.143462   -501.466117
PE26  26485.477488   4691.177400 -12337.573666   3633.371962
PE27  14087.054701  25260.979803   6267.804023    301.288112
PE30  -2417.338574  20378.117138  21317.378293   4215.391740
PE31   2145.009840 -20458.151096 -21280.146079   -471.351070
PE33  27842.631993  -8027.057658   6069.745899   -470.899897
PE36 -26360.436938  -4615.313042  12660.699176    609.857574
PG01  16250.976396  13879.338999 -16181.037251   -266.125442
PG02   7568.633172 -14492.278269  21555.179870   -388.061166
PG03  13395.237930  21853.530599   7080.077969    -74.762665
PG04   8125.753929  13472.559497  21403.006144    -36.004630
PG05   -305.376662 -23490.890249  12063.417120     -6.261188
PG06  19905.331601  -7584.004769  15941.991062   -185.245948
PG07  26117.766553   5942.950104   1719.468147   -194.626924
PG08   -969.699914  20088.269819 -17190.316246    -20.619996
PG09  16029.603516   3654.990843  20807.222018   -135.090556
PG10 -14517.860387   4236.338493 -21766.604024   -213.548484
PG11   9661.891161  13964.121059 -20860.187720   -386.867135
PG12  -9774.308420 -24506.845761   3564.114543    161.096607
PG13   9974.892851 -21236.863112 -12495.330703    -19.167249
PG14 -18320.207824  19088.320121    146.318959    -38.075696
PG15  -2318.333370 -20028.691413 -17402.123200   -257.813918
PG16  -2359.592364  22956.973495  12532.338905   -114.800219
PG17  20784.247233 -12969.382496  -9755.017094    200.610850
PG18   7823.613645  15502.730064 -20626.393178    114.154571
PG19  20217.750797 -16982.804582  -3211.654530   -210.933389
PG20 -18552.078298  -6429.560799 -18067.794428    527.810388
PG21 -26262.249019  -2926.500192    341.618628    -54.066087
PG22  10682.866066  24355.857892   -915.373159   -782.297529
PG23  10361.254635  12125.999830  21558.006223   -142.353279
PG24 -14692.732120 -14336.553671 -17231.585008     -7.737688
PG25 -16207.300451 -15511.286052  14202.393341    -15.769584
PG26  -7919.809538  16642.482907  19022.205676    129.716554
PG27 -10777.038062  22473.178212  -8808.974302   -184.572343
PG28  13670.036593  -5041.937751 -21617.647765    744.629264
PG29 -15012.358965  -4721.166932  21368.012676    -10.404157
PG30  24840.008468  -1949.686918  -9449.122733   -131.945708
PG31 -18387.507959   8758.816670  17256.364264    -17.295763
PG32 -20227.703317  14018.877402  -9744.944442    188.108476
PJ01 -20147.014591  30305.732487 -16721.537904   -325.434794
PJ02 -26007.417683  20576.802811  30865.738941     -0.817815
PJ03 -33948.250385  25030.706116   2150.059178     -0.143628
PJ07      0.000000      0.000000      0.000000 999999.999999
PR01  11474.412680  -8626.590678  21077.620585     55.779894
PR02   6374.394800 -24187.850683   5183.041201    407.708217
PR03  -2318.407693 -22360.476416 -12067.421241      8.444143
PR04  -9442.064914  -7723.554108 -22382.334142     35.754500
PR05 -11248.316446  11204.440355 -19952.325849     43.334111
PR07   2638.835167  21984.184436  12656.837809    -32.133567
PR08   9564.614572   7769.589347  22378.515101     13.033384
PR09   2114.937403  14707.820438  20763.734099    112.052210
PR11  21077.135518  12444.681929  -7238.668798    -10.408856
PR12  15558.083521    270.217514 -20177.748287     97.883336
PR13    664.016076 -12797.606850 -22074.475789    -33.679479
PR14 -14249.388958 -18168.352084 -10825.578835     47.209494
PR15 -20965.615607 -13024.312834   6478.237787    105.703154
PR16 -15514.033686    351.461418  20261.723036     -1.025225
PR17  -3429.840163 -10045.512110  23210.355008    293.353262
PR18 -18705.718940  -1283.161529  17287.756394     21.954761
PR19 -24286.634843   7447.810469   2342.499418    -74.604006
PR20 -14987.068547  12873.605900 -16092.853829   -401.796756
PR21   4208.199703   9653.294576 -23224.168708    -99.017361
PR22  20597.177561   -429.035165 -15111.007483    -10.272054
PR23  22880.656850 -10510.652486   4087.445032    280.572800
PR26 -17905.841990  12868.972979 -12829.277173   -410.907728
EOF
